CCSDS_OMM_VERS = 2.0
CREATION_DATE  = 
ORIGINATOR     = 

OBJECT_NAME    = 2025-274D
OBJECT_ID      = 2025-274D
CENTER_NAME    = EARTH
REF_FRAME      = TEME
TIME_SYSTEM    = UTC
MEAN_ELEMENT_THEORY = SGP/SGP4

EPOCH          = 2025-12-06T18:44:11.238432
MEAN_MOTION    = 14.91860600
ECCENTRICITY   = .00112399
INCLINATION    = 97.7389
RA_OF_ASC_NODE = 268.0815
ARG_OF_PERICENTER = 276.5881
MEAN_ANOMALY   = 83.4058

EPHEMERIS_TYPE = 0
CLASSIFICATION_TYPE = U
NORAD_CAT_ID   = 66653
ELEMENT_SET_NO = 999
REV_AT_EPOCH   = 151
BSTAR          = .37475306E-3
MEAN_MOTION_DOT = .3734E-4
MEAN_MOTION_DDOT = 0

CCSDS_OMM_VERS = 2.0
CREATION_DATE  = 
ORIGINATOR     = 

OBJECT_NAME    = JACK E
OBJECT_ID      = 2025-274E
CENTER_NAME    = EARTH
REF_FRAME      = TEME
TIME_SYSTEM    = UTC
MEAN_ELEMENT_THEORY = SGP/SGP4

EPOCH          = 2025-12-06T18:42:35.432064
MEAN_MOTION    = 14.92032592
ECCENTRICITY   = .00118202
INCLINATION    = 97.7393
RA_OF_ASC_NODE = 268.0833
ARG_OF_PERICENTER = 278.1013
MEAN_ANOMALY   = 81.8865

EPHEMERIS_TYPE = 0
CLASSIFICATION_TYPE = U
NORAD_CAT_ID   = 66654
ELEMENT_SET_NO = 999
REV_AT_EPOCH   = 151
BSTAR          = .43780536E-3
MEAN_MOTION_DOT = .4392E-4
MEAN_MOTION_DDOT = 0

CCSDS_OMM_VERS = 2.0
CREATION_DATE  = 
ORIGINATOR     = 

OBJECT_NAME    = 2025-274F
OBJECT_ID      = 2025-274F
CENTER_NAME    = EARTH
REF_FRAME      = TEME
TIME_SYSTEM    = UTC
MEAN_ELEMENT_THEORY = SGP/SGP4

EPOCH          = 2025-12-06T20:17:23.702208
MEAN_MOTION    = 14.92429092
ECCENTRICITY   = .00065248
INCLINATION    = 97.7352
RA_OF_ASC_NODE = 268.1503
ARG_OF_PERICENTER = 318.9562
MEAN_ANOMALY   = 41.1166

EPHEMERIS_TYPE = 0
CLASSIFICATION_TYPE = U
NORAD_CAT_ID   = 66655
ELEMENT_SET_NO = 999
REV_AT_EPOCH   = 152
BSTAR          = .16472003E-2
MEAN_MOTION_DOT = .1686E-3
MEAN_MOTION_DDOT = 0

CCSDS_OMM_VERS = 2.0
CREATION_DATE  = 
ORIGINATOR     = 

OBJECT_NAME    = 2025-274G
OBJECT_ID      = 2025-274G
CENTER_NAME    = EARTH
REF_FRAME      = TEME
TIME_SYSTEM    = UTC
MEAN_ELEMENT_THEORY = SGP/SGP4

EPOCH          = 2025-12-06T18:40:49.621440
MEAN_MOTION    = 14.92219802
ECCENTRICITY   = .00124648
INCLINATION    = 97.7391
RA_OF_ASC_NODE = 268.0842
ARG_OF_PERICENTER = 279.9170
MEAN_ANOMALY   = 80.0642

EPHEMERIS_TYPE = 0
CLASSIFICATION_TYPE = U
NORAD_CAT_ID   = 66656
ELEMENT_SET_NO = 999
REV_AT_EPOCH   = 151
BSTAR          = .49696804E-3
MEAN_MOTION_DOT = .5017E-4
MEAN_MOTION_DDOT = 0

CCSDS_OMM_VERS = 2.0
CREATION_DATE  = 
ORIGINATOR     = 

OBJECT_NAME    = SPIRONE
OBJECT_ID      = 2025-274H
CENTER_NAME    = EARTH
REF_FRAME      = TEME
TIME_SYSTEM    = UTC
MEAN_ELEMENT_THEORY = SGP/SGP4

EPOCH          = 2025-12-06T18:39:05.607072
MEAN_MOTION    = 14.92399421
ECCENTRICITY   = .00109595
INCLINATION    = 97.7389
RA_OF_ASC_NODE = 268.0859
ARG_OF_PERICENTER = 298.7939
MEAN_ANOMALY   = 61.2179

EPHEMERIS_TYPE = 0
CLASSIFICATION_TYPE = U
NORAD_CAT_ID   = 66657
ELEMENT_SET_NO = 999
REV_AT_EPOCH   = 151
BSTAR          = .48630112E-3
MEAN_MOTION_DOT = .4929E-4
MEAN_MOTION_DDOT = 0

CCSDS_OMM_VERS = 2.0
CREATION_DATE  = 
ORIGINATOR     = 

OBJECT_NAME    = 2025-274J
OBJECT_ID      = 2025-274J
CENTER_NAME    = EARTH
REF_FRAME      = TEME
TIME_SYSTEM    = UTC
MEAN_ELEMENT_THEORY = SGP/SGP4

EPOCH          = 2025-12-06T18:37:23.200608
MEAN_MOTION    = 14.92572861
ECCENTRICITY   = .0011554
INCLINATION    = 97.7391
RA_OF_ASC_NODE = 268.0870
ARG_OF_PERICENTER = 301.9626
MEAN_ANOMALY   = 58.0469

EPHEMERIS_TYPE = 0
CLASSIFICATION_TYPE = U
NORAD_CAT_ID   = 66658
ELEMENT_SET_NO = 999
REV_AT_EPOCH   = 151
BSTAR          = .47014759E-3
MEAN_MOTION_DOT = .4785E-4
MEAN_MOTION_DDOT = 0

CCSDS_OMM_VERS = 2.0
CREATION_DATE  = 
ORIGINATOR     = 

OBJECT_NAME    = JACK K
OBJECT_ID      = 2025-274K
CENTER_NAME    = EARTH
REF_FRAME      = TEME
TIME_SYSTEM    = UTC
MEAN_ELEMENT_THEORY = SGP/SGP4

EPOCH          = 2025-12-06T18:35:34.616544
MEAN_MOTION    = 14.92758727
ECCENTRICITY   = .00122721
INCLINATION    = 97.7393
RA_OF_ASC_NODE = 268.0890
ARG_OF_PERICENTER = 303.0138
MEAN_ANOMALY   = 56.9902

EPHEMERIS_TYPE = 0
CLASSIFICATION_TYPE = U
NORAD_CAT_ID   = 66659
ELEMENT_SET_NO = 999
REV_AT_EPOCH   = 151
BSTAR          = .46843294E-3
MEAN_MOTION_DOT = .4791E-4
MEAN_MOTION_DDOT = 0

CCSDS_OMM_VERS = 2.0
CREATION_DATE  = 
ORIGINATOR     = 

OBJECT_NAME    = K-HERO
OBJECT_ID      = 2025-274L
CENTER_NAME    = EARTH
REF_FRAME      = TEME
TIME_SYSTEM    = UTC
MEAN_ELEMENT_THEORY = SGP/SGP4

EPOCH          = 2025-12-06T18:34:07.333536
MEAN_MOTION    = 14.92907232
ECCENTRICITY   = .00129299
INCLINATION    = 97.7397
RA_OF_ASC_NODE = 268.0907
ARG_OF_PERICENTER = 303.6775
MEAN_ANOMALY   = 56.3211

EPHEMERIS_TYPE = 0
CLASSIFICATION_TYPE = U
NORAD_CAT_ID   = 66660
ELEMENT_SET_NO = 999
REV_AT_EPOCH   = 151
BSTAR          = .46203975E-3
MEAN_MOTION_DOT = .4743E-4
MEAN_MOTION_DDOT = 0

CCSDS_OMM_VERS = 2.0
CREATION_DATE  = 
ORIGINATOR     = 

OBJECT_NAME    = SNUGLITE-III
OBJECT_ID      = 2025-274M
CENTER_NAME    = EARTH
REF_FRAME      = TEME
TIME_SYSTEM    = UTC
MEAN_ELEMENT_THEORY = SGP/SGP4

EPOCH          = 2025-12-06T18:32:37.955328
MEAN_MOTION    = 14.93056475
ECCENTRICITY   = .00135238
INCLINATION    = 97.7395
RA_OF_ASC_NODE = 268.0919
ARG_OF_PERICENTER = 304.5866
MEAN_ANOMALY   = 55.4077

EPHEMERIS_TYPE = 0
CLASSIFICATION_TYPE = U
NORAD_CAT_ID   = 66661
ELEMENT_SET_NO = 999
REV_AT_EPOCH   = 151
BSTAR          = .43653793E-3
MEAN_MOTION_DOT = .4496E-4
MEAN_MOTION_DDOT = 0

CCSDS_OMM_VERS = 2.0
CREATION_DATE  = 
ORIGINATOR     = 

OBJECT_NAME    = 2025-274N
OBJECT_ID      = 2025-274N
CENTER_NAME    = EARTH
REF_FRAME      = TEME
TIME_SYSTEM    = UTC
MEAN_ELEMENT_THEORY = SGP/SGP4

EPOCH          = 2025-12-06T18:32:00.890592
MEAN_MOTION    = 14.93103897
ECCENTRICITY   = .00140226
INCLINATION    = 97.7392
RA_OF_ASC_NODE = 268.0924
ARG_OF_PERICENTER = 303.8730
MEAN_ANOMALY   = 56.1155

EPHEMERIS_TYPE = 0
CLASSIFICATION_TYPE = U
NORAD_CAT_ID   = 66662
ELEMENT_SET_NO = 999
REV_AT_EPOCH   = 151
BSTAR          = .28819991E-3
MEAN_MOTION_DOT = .2952E-4
MEAN_MOTION_DDOT = 0

CCSDS_OMM_VERS = 2.0
CREATION_DATE  = 
ORIGINATOR     = 

OBJECT_NAME    = KSLV-II R/B
OBJECT_ID      = 2025-274P
CENTER_NAME    = EARTH
REF_FRAME      = TEME
TIME_SYSTEM    = UTC
MEAN_ELEMENT_THEORY = SGP/SGP4

EPOCH          = 2025-12-06T19:27:04.446432
MEAN_MOTION    = 14.97226496
ECCENTRICITY   = .00484111
INCLINATION    = 97.7412
RA_OF_ASC_NODE = 268.2109
ARG_OF_PERICENTER = 339.2416
MEAN_ANOMALY   = 20.6839

EPHEMERIS_TYPE = 0
CLASSIFICATION_TYPE = U
NORAD_CAT_ID   = 66663
ELEMENT_SET_NO = 999
REV_AT_EPOCH   = 152
BSTAR          = .53388811E-3
MEAN_MOTION_DOT = .6269E-4
MEAN_MOTION_DDOT = 0

CCSDS_OMM_VERS = 2.0
CREATION_DATE  = 
ORIGINATOR     = 

OBJECT_NAME    = SOYUZ-MS 28
OBJECT_ID      = 2025-275A
CENTER_NAME    = EARTH
REF_FRAME      = TEME
TIME_SYSTEM    = UTC
MEAN_ELEMENT_THEORY = SGP/SGP4

EPOCH          = 2025-12-06T20:46:13.238400
MEAN_MOTION    = 15.49374779
ECCENTRICITY   = .00034973
INCLINATION    = 51.6304
RA_OF_ASC_NODE = 171.5636
ARG_OF_PERICENTER = 213.1314
MEAN_ANOMALY   = 146.9456

EPHEMERIS_TYPE = 0
CLASSIFICATION_TYPE = U
NORAD_CAT_ID   = 66664
ELEMENT_SET_NO = 999
REV_AT_EPOCH   = 128
BSTAR          = .25393652E-3
MEAN_MOTION_DOT = .1375E-3
MEAN_MOTION_DDOT = 0

CCSDS_OMM_VERS = 2.0
CREATION_DATE  = 
ORIGINATOR     = 

OBJECT_NAME    = KOMPSAT-7
OBJECT_ID      = 2025-279A
CENTER_NAME    = EARTH
REF_FRAME      = TEME
TIME_SYSTEM    = UTC
MEAN_ELEMENT_THEORY = SGP/SGP4

EPOCH          = 2025-12-06T20:47:47.040288
MEAN_MOTION    = 14.98355753
ECCENTRICITY   = .00094981
INCLINATION    = 97.6393
RA_OF_ASC_NODE = 286.8524
ARG_OF_PERICENTER = 242.4762
MEAN_ANOMALY   = 117.5496

EPHEMERIS_TYPE = 0
CLASSIFICATION_TYPE = U
NORAD_CAT_ID   = 66820
ELEMENT_SET_NO = 999
REV_AT_EPOCH   = 77
BSTAR          = .39334363E-3
MEAN_MOTION_DOT = .4634E-4
MEAN_MOTION_DDOT = 0

CCSDS_OMM_VERS = 2.0
CREATION_DATE  = 
ORIGINATOR     = 

OBJECT_NAME    = ZQ-3 R/B
OBJECT_ID      = 2025-282A
CENTER_NAME    = EARTH
REF_FRAME      = TEME
TIME_SYSTEM    = UTC
MEAN_ELEMENT_THEORY = SGP/SGP4

EPOCH          = 2025-12-06T23:05:26.334240
MEAN_MOTION    = 14.44698688
ECCENTRICITY   = .08406531
INCLINATION    = 56.9538
RA_OF_ASC_NODE = 79.5521
ARG_OF_PERICENTER = 210.0660
MEAN_ANOMALY   = 144.9465

EPHEMERIS_TYPE = 0
CLASSIFICATION_TYPE = U
NORAD_CAT_ID   = 66877
ELEMENT_SET_NO = 999
REV_AT_EPOCH   = 55
BSTAR          = .24476681E-3
MEAN_MOTION_DOT = .1121977E-1
MEAN_MOTION_DDOT = .7252501E-5

CCSDS_OMM_VERS = 2.0
CREATION_DATE  = 
ORIGINATOR     = 

OBJECT_NAME    = 1998-067XS
OBJECT_ID      = 1998-067XS
CENTER_NAME    = EARTH
REF_FRAME      = TEME
TIME_SYSTEM    = UTC
MEAN_ELEMENT_THEORY = SGP/SGP4

EPOCH          = 2025-12-06T22:16:16.867200
MEAN_MOTION    = 15.50144102
ECCENTRICITY   = .00041468
INCLINATION    = 51.6299
RA_OF_ASC_NODE = 171.2315
ARG_OF_PERICENTER = 177.6061
MEAN_ANOMALY   = 182.4948

EPHEMERIS_TYPE = 0
CLASSIFICATION_TYPE = U
NORAD_CAT_ID   = 66906
ELEMENT_SET_NO = 999
REV_AT_EPOCH   = 71
BSTAR          = .61899955E-3
MEAN_MOTION_DOT = .35216E-3
MEAN_MOTION_DDOT = 0

